STARLINK-37177          
1 68611U 26073K   26119.27161349 -.00446102  00000+0 -24922-2 0  9991
2 68611  97.2825 317.6104 0001459  72.6289 287.5139 15.80434246  3524
STARLINK-36386          
1 68612U 26073L   26119.27082051  .00180826  00000+0  92297-3 0  9991
2 68612  97.2826 317.6111 0001401  79.3080 280.8346 15.80872180  3523
STARLINK-36187          
1 68613U 26073M   26119.27006905  .00128069  00000+0  65852-3 0  9994
2 68613  97.2827 317.6117 0001556  71.1265 289.0172 15.80851090  3522
STARLINK-37170          
1 68614U 26073N   26119.28528989  .00134504  00000+0  88716-3 0  9992
2 68614  97.2834 317.5903 0001383  91.7228 268.4196 15.75225092  3526
STARLINK-37176          
1 68615U 26073P   26119.25003472 -.00182437  00000+0 -12423-2 0  9996
2 68615  97.2838 317.5697 0001493  92.0529 102.2274 15.75303626  4669
STARLINK-37152          
1 68616U 26073Q   26119.23376001  .00139969  00000+0  92209-3 0  9997
2 68616  97.2833 317.5066 0001419  86.0115 274.1313 15.75237454  3518
STARLINK-37186          
1 68617U 26073R   26119.26706046  .00184487  00000+0  93940-3 0  9995
2 68617  97.2828 317.6151 0001221  96.2055 263.9352 15.80915398  3522
STARLINK-37179          
1 68618U 26073S   26119.28353062  .00106163  00000+0  70303-3 0  9997
2 68618  97.2833 317.5920 0003253  86.8691 273.2947 15.75210907  3522
STARLINK-37226          
1 68619U 26073T   26119.28882079  .00116637  00000+0  77144-3 0  9990
2 68619  97.2834 317.5849 0001495  69.1816 290.9609 15.75213357  3526
STARLINK-37211          
1 68620U 26073U   26119.25003472 -.00082030  00000+0 -55354-3 0  9991
2 68620  97.2836 317.5743 0001515  87.8790 118.4564 15.75224582  4587
STARLINK-37269          
1 68621U 26073V   26119.30328987  .00128691  00000+0  84988-3 0  9996
2 68621  97.2839 317.5662 0001407  95.4405 264.7020 15.75212894  3527
STARLINK-37252          
1 68622U 26073W   26119.29093858  .00109197  00000+0  72294-3 0  9998
2 68622  97.2836 317.5823 0001514  78.6459 281.4976 15.75212532  3520
STARLINK-37284          
1 68623U 26073X   26119.26254952  .00164743  00000+0  84169-3 0  9992
2 68623  97.2827 317.6210 0001296  94.9430 265.1986 15.80893491  3524
STARLINK-37231          
1 68624U 26073Y   26119.30117352  .00150027  00000+0  98799-3 0  9994
2 68624  97.2838 317.5687 0001506  87.7575 272.3863 15.75216850  3524
STARLINK-37249          
1 68625U 26073Z   26119.25003472 -.00085201  00000+0 -57506-3 0  9990
2 68625  97.2837 317.6030 0001514  77.1766 195.1446 15.75229240  4584
STARLINK-37285          
1 68626U 26073AA  26119.23517179  .00120683  00000+0  79728-3 0  9995
2 68626  97.2840 317.5049 0001295 103.1572 256.9838 15.75228273  3517
