[{"OBJECT_NAME":"STARLINK-37177","OBJECT_ID":"2026-073K","EPOCH":"2026-04-29T06:31:07.405536","MEAN_MOTION":15.80434246,"ECCENTRICITY":0.00014595,"INCLINATION":97.2825,"RA_OF_ASC_NODE":317.6104,"ARG_OF_PERICENTER":72.6289,"MEAN_ANOMALY":287.5139,"EPHEMERIS_TYPE":0,"CLASSIFICATION_TYPE":"U","NORAD_CAT_ID":68611,"ELEMENT_SET_NO":999,"REV_AT_EPOCH":352,"BSTAR":-0.002492232,"MEAN_MOTION_DOT":-0.00446102,"MEAN_MOTION_DDOT":0},{"OBJECT_NAME":"STARLINK-36386","OBJECT_ID":"2026-073L","EPOCH":"2026-04-29T06:29:58.892064","MEAN_MOTION":15.8087218,"ECCENTRICITY":0.00014017,"INCLINATION":97.2826,"RA_OF_ASC_NODE":317.6111,"ARG_OF_PERICENTER":79.308,"MEAN_ANOMALY":280.8346,"EPHEMERIS_TYPE":0,"CLASSIFICATION_TYPE":"U","NORAD_CAT_ID":68612,"ELEMENT_SET_NO":999,"REV_AT_EPOCH":352,"BSTAR":0.0009229732,"MEAN_MOTION_DOT":0.00180826,"MEAN_MOTION_DDOT":0},{"OBJECT_NAME":"STARLINK-36187","OBJECT_ID":"2026-073M","EPOCH":"2026-04-29T06:28:53.965920","MEAN_MOTION":15.8085109,"ECCENTRICITY":0.0001556,"INCLINATION":97.2827,"RA_OF_ASC_NODE":317.6117,"ARG_OF_PERICENTER":71.1265,"MEAN_ANOMALY":289.0172,"EPHEMERIS_TYPE":0,"CLASSIFICATION_TYPE":"U","NORAD_CAT_ID":68613,"ELEMENT_SET_NO":999,"REV_AT_EPOCH":352,"BSTAR":0.00065851751,"MEAN_MOTION_DOT":0.00128069,"MEAN_MOTION_DDOT":0},{"OBJECT_NAME":"STARLINK-37170","OBJECT_ID":"2026-073N","EPOCH":"2026-04-29T06:50:49.046496","MEAN_MOTION":15.75225092,"ECCENTRICITY":0.00013836,"INCLINATION":97.2834,"RA_OF_ASC_NODE":317.5903,"ARG_OF_PERICENTER":91.7228,"MEAN_ANOMALY":268.4196,"EPHEMERIS_TYPE":0,"CLASSIFICATION_TYPE":"U","NORAD_CAT_ID":68614,"ELEMENT_SET_NO":999,"REV_AT_EPOCH":352,"BSTAR":0.00088716324,"MEAN_MOTION_DOT":0.00134504,"MEAN_MOTION_DDOT":0},{"OBJECT_NAME":"STARLINK-37176","OBJECT_ID":"2026-073P","EPOCH":"2026-04-29T06:00:02.999808","MEAN_MOTION":15.75303626,"ECCENTRICITY":0.00014936,"INCLINATION":97.2838,"RA_OF_ASC_NODE":317.5697,"ARG_OF_PERICENTER":92.0529,"MEAN_ANOMALY":102.2274,"EPHEMERIS_TYPE":0,"CLASSIFICATION_TYPE":"U","NORAD_CAT_ID":68615,"ELEMENT_SET_NO":999,"REV_AT_EPOCH":466,"BSTAR":-0.0012423476,"MEAN_MOTION_DOT":-0.00182437,"MEAN_MOTION_DDOT":0},{"OBJECT_NAME":"STARLINK-37152","OBJECT_ID":"2026-073Q","EPOCH":"2026-04-29T05:36:36.864864","MEAN_MOTION":15.75237454,"ECCENTRICITY":0.00014198,"INCLINATION":97.2833,"RA_OF_ASC_NODE":317.5066,"ARG_OF_PERICENTER":86.0115,"MEAN_ANOMALY":274.1313,"EPHEMERIS_TYPE":0,"CLASSIFICATION_TYPE":"U","NORAD_CAT_ID":68616,"ELEMENT_SET_NO":999,"REV_AT_EPOCH":351,"BSTAR":0.00092208655,"MEAN_MOTION_DOT":0.00139969,"MEAN_MOTION_DDOT":0},{"OBJECT_NAME":"STARLINK-37186","OBJECT_ID":"2026-073R","EPOCH":"2026-04-29T06:24:34.023744","MEAN_MOTION":15.80915398,"ECCENTRICITY":0.00012214,"INCLINATION":97.2828,"RA_OF_ASC_NODE":317.6151,"ARG_OF_PERICENTER":96.2055,"MEAN_ANOMALY":263.9352,"EPHEMERIS_TYPE":0,"CLASSIFICATION_TYPE":"U","NORAD_CAT_ID":68617,"ELEMENT_SET_NO":999,"REV_AT_EPOCH":352,"BSTAR":0.000939397,"MEAN_MOTION_DOT":0.00184487,"MEAN_MOTION_DDOT":0},{"OBJECT_NAME":"STARLINK-37179","OBJECT_ID":"2026-073S","EPOCH":"2026-04-29T06:48:17.045568","MEAN_MOTION":15.75210907,"ECCENTRICITY":0.00032537,"INCLINATION":97.2833,"RA_OF_ASC_NODE":317.592,"ARG_OF_PERICENTER":86.8691,"MEAN_ANOMALY":273.2947,"EPHEMERIS_TYPE":0,"CLASSIFICATION_TYPE":"U","NORAD_CAT_ID":68618,"ELEMENT_SET_NO":999,"REV_AT_EPOCH":352,"BSTAR":0.00070303483,"MEAN_MOTION_DOT":0.00106163,"MEAN_MOTION_DDOT":0},{"OBJECT_NAME":"STARLINK-37226","OBJECT_ID":"2026-073T","EPOCH":"2026-04-29T06:55:54.116256","MEAN_MOTION":15.75213357,"ECCENTRICITY":0.00014954,"INCLINATION":97.2834,"RA_OF_ASC_NODE":317.5849,"ARG_OF_PERICENTER":69.1816,"MEAN_ANOMALY":290.9609,"EPHEMERIS_TYPE":0,"CLASSIFICATION_TYPE":"U","NORAD_CAT_ID":68619,"ELEMENT_SET_NO":999,"REV_AT_EPOCH":352,"BSTAR":0.000771436,"MEAN_MOTION_DOT":0.00116637,"MEAN_MOTION_DDOT":0},{"OBJECT_NAME":"STARLINK-37211","OBJECT_ID":"2026-073U","EPOCH":"2026-04-29T06:00:02.999808","MEAN_MOTION":15.75224582,"ECCENTRICITY":0.00015157,"INCLINATION":97.2836,"RA_OF_ASC_NODE":317.5743,"ARG_OF_PERICENTER":87.879,"MEAN_ANOMALY":118.4564,"EPHEMERIS_TYPE":0,"CLASSIFICATION_TYPE":"U","NORAD_CAT_ID":68620,"ELEMENT_SET_NO":999,"REV_AT_EPOCH":458,"BSTAR":-0.00055353666,"MEAN_MOTION_DOT":-0.0008203,"MEAN_MOTION_DDOT":0},{"OBJECT_NAME":"STARLINK-37269","OBJECT_ID":"2026-073V","EPOCH":"2026-04-29T07:16:44.244768","MEAN_MOTION":15.75212894,"ECCENTRICITY":0.00014075,"INCLINATION":97.2839,"RA_OF_ASC_NODE":317.5662,"ARG_OF_PERICENTER":95.4405,"MEAN_ANOMALY":264.702,"EPHEMERIS_TYPE":0,"CLASSIFICATION_TYPE":"U","NORAD_CAT_ID":68621,"ELEMENT_SET_NO":999,"REV_AT_EPOCH":352,"BSTAR":0.00084988404,"MEAN_MOTION_DOT":0.00128691,"MEAN_MOTION_DDOT":0},{"OBJECT_NAME":"STARLINK-37252","OBJECT_ID":"2026-073W","EPOCH":"2026-04-29T06:58:57.093312","MEAN_MOTION":15.75212532,"ECCENTRICITY":0.00015143,"INCLINATION":97.2836,"RA_OF_ASC_NODE":317.5823,"ARG_OF_PERICENTER":78.6459,"MEAN_ANOMALY":281.4976,"EPHEMERIS_TYPE":0,"CLASSIFICATION_TYPE":"U","NORAD_CAT_ID":68622,"ELEMENT_SET_NO":999,"REV_AT_EPOCH":352,"BSTAR":0.0007229419,"MEAN_MOTION_DOT":0.00109197,"MEAN_MOTION_DDOT":0},{"OBJECT_NAME":"STARLINK-37284","OBJECT_ID":"2026-073X","EPOCH":"2026-04-29T06:18:04.278528","MEAN_MOTION":15.80893491,"ECCENTRICITY":0.00012963,"INCLINATION":97.2827,"RA_OF_ASC_NODE":317.621,"ARG_OF_PERICENTER":94.943,"MEAN_ANOMALY":265.1986,"EPHEMERIS_TYPE":0,"CLASSIFICATION_TYPE":"U","NORAD_CAT_ID":68623,"ELEMENT_SET_NO":999,"REV_AT_EPOCH":352,"BSTAR":0.00084168946,"MEAN_MOTION_DOT":0.00164743,"MEAN_MOTION_DDOT":0},{"OBJECT_NAME":"STARLINK-37231","OBJECT_ID":"2026-073Y","EPOCH":"2026-04-29T07:13:41.392128","MEAN_MOTION":15.7521685,"ECCENTRICITY":0.00015068,"INCLINATION":97.2838,"RA_OF_ASC_NODE":317.5687,"ARG_OF_PERICENTER":87.7575,"MEAN_ANOMALY":272.3863,"EPHEMERIS_TYPE":0,"CLASSIFICATION_TYPE":"U","NORAD_CAT_ID":68624,"ELEMENT_SET_NO":999,"REV_AT_EPOCH":352,"BSTAR":0.00098799468,"MEAN_MOTION_DOT":0.00150027,"MEAN_MOTION_DDOT":0},{"OBJECT_NAME":"STARLINK-37249","OBJECT_ID":"2026-073Z","EPOCH":"2026-04-29T06:00:02.999808","MEAN_MOTION":15.7522924,"ECCENTRICITY":0.00015144,"INCLINATION":97.2837,"RA_OF_ASC_NODE":317.603,"ARG_OF_PERICENTER":77.1766,"MEAN_ANOMALY":195.1446,"EPHEMERIS_TYPE":0,"CLASSIFICATION_TYPE":"U","NORAD_CAT_ID":68625,"ELEMENT_SET_NO":999,"REV_AT_EPOCH":458,"BSTAR":-0.00057506496,"MEAN_MOTION_DOT":-0.00085201,"MEAN_MOTION_DDOT":0},{"OBJECT_NAME":"STARLINK-37285","OBJECT_ID":"2026-073AA","EPOCH":"2026-04-29T05:38:38.842656","MEAN_MOTION":15.75228273,"ECCENTRICITY":0.00012955,"INCLINATION":97.284,"RA_OF_ASC_NODE":317.5049,"ARG_OF_PERICENTER":103.1572,"MEAN_ANOMALY":256.9838,"EPHEMERIS_TYPE":0,"CLASSIFICATION_TYPE":"U","NORAD_CAT_ID":68626,"ELEMENT_SET_NO":999,"REV_AT_EPOCH":351,"BSTAR":0.0007972803,"MEAN_MOTION_DOT":0.00120683,"MEAN_MOTION_DDOT":0}]
